{"type":"FeatureCollection","features":[{"type":"Feature","properties":{"name":"Tana River basin","source":"User-supplied 'Tana Basin.shp' (WGS84 lon/lat)","area_km2":126018.0},"geometry":{"type":"Polygon","coordinates":[[[38.0688,0.4689],[38.0859,0.4708],[38.094,0.4715],[38.1043,0.4776],[38.1165,0.4787],[38.1281,0.4772],[38.1401,0.4753],[38.1515,0.4741],[38.1653,0.4737],[38.1723,0.4741],[38.1835,0.4787],[38.1944,0.4768],[38.2091,0.4755],[38.2266,0.4752],[38.242,0.4753],[38.2556,0.4768],[38.2656,0.4786],[38.2758,0.4783],[38.2849,0.4748],[38.2967,0.4758],[38.3112,0.4783],[38.3246,0.4791],[38.3353,0.4737],[38.3377,0.4679],[38.3473,0.4642],[38.3539,0.4634],[38.3611,0.4588],[38.3654,0.4523],[38.377,0.4467],[38.3865,0.4457],[38.3928,0.4436],[38.3967,0.4375],[38.3998,0.4313],[38.405,0.425],[38.4123,0.4227],[38.4232,0.4212],[38.432,0.4205],[38.4384,0.4186],[38.4475,0.4192],[38.4593,0.4223],[38.4711,0.4246],[38.4831,0.4231],[38.491,0.4214],[38.5048,0.408],[38.5135,0.4035],[38.5225,0.3988],[38.5323,0.3902],[38.5388,0.3851],[38.5531,0.3816],[38.564,0.3806],[38.5724,0.3782],[38.5789,0.3692],[38.5876,0.3629],[38.6,0.3579],[38.6102,0.3512],[38.6245,0.3497],[38.639,0.3466],[38.651,0.3449],[38.664,0.3365],[38.6764,0.3307],[38.6873,0.3241],[38.697,0.3197],[38.7084,0.3166],[38.717,0.3147],[38.7306,0.3077],[38.7508,0.2962],[38.7646,0.2897],[38.7809,0.2854],[38.8011,0.2814],[38.8227,0.2771],[38.8342,0.2721],[38.8439,0.2624],[38.8555,0.263],[38.8646,0.2562],[38.8709,0.2493],[38.8781,0.2358],[38.8931,0.2279],[38.9053,0.2184],[38.9074,0.2112],[38.903,0.2018],[38.9168,0.1904],[38.9279,0.1827],[38.947,0.1736],[38.9553,0.1675],[38.9583,0.161],[38.9687,0.1547],[38.9778,0.1484],[38.9909,0.1373],[39.0102,0.1397],[39.0199,0.1366],[39.0356,0.1404],[39.0429,0.1378],[39.0526,0.1325],[39.0639,0.1234],[39.0684,0.1139],[39.072,0.1012],[39.0763,0.0942],[39.0827,0.0933],[39.0929,0.0881],[39.1035,0.0855],[39.1112,0.0804],[39.1174,0.0746],[39.1316,0.0735],[39.1434,0.0746],[39.1537,0.078],[39.1666,0.0682],[39.1795,0.0612],[39.1904,0.0554],[39.1987,0.0477],[39.2062,0.0433],[39.2139,0.0333],[39.2223,0.0268],[39.2309,0.0191],[39.2429,0.0123],[39.2583,0.0065],[39.2681,0.0094],[39.2829,0.0153],[39.2999,0.0244],[39.3126,0.0328],[39.3229,0.0434],[39.3322,0.0567],[39.3479,0.064],[39.3611,0.0662],[39.3738,0.0647],[39.3942,0.0604],[39.4187,0.0526],[39.4311,0.0502],[39.4386,0.0488],[39.4565,0.0429],[39.4844,0.0309],[39.5348,0.014],[39.5907,-0.0081],[39.6173,-0.0099],[39.644,-0.0188],[39.6753,-0.028],[39.7041,-0.0324],[39.7388,-0.0349],[39.7897,-0.0454],[39.816,-0.0528],[39.8336,-0.0601],[39.8531,-0.0701],[39.8706,-0.0797],[39.8998,-0.0875],[39.9288,-0.0969],[39.9526,-0.1093],[39.9884,-0.1227],[40.0118,-0.133],[40.0424,-0.1457],[40.0703,-0.1546],[40.0866,-0.158],[40.1036,-0.1646],[40.1306,-0.1733],[40.1705,-0.1756],[40.2079,-0.1763],[40.2449,-0.1713],[40.2838,-0.164],[40.323,-0.1587],[40.3414,-0.1514],[40.3718,-0.1475],[40.3925,-0.147],[40.4161,-0.1437],[40.4463,-0.1372],[40.4662,-0.1387],[40.4989,-0.129],[40.53,-0.1191],[40.56,-0.111],[40.5743,-0.1046],[40.5877,-0.1008],[40.6007,-0.0965],[40.6177,-0.0842],[40.6318,-0.0728],[40.6457,-0.0662],[40.6586,-0.063],[40.6654,-0.064],[40.677,-0.0526],[40.6941,-0.0368],[40.7138,-0.0238],[40.7293,-0.0137],[40.7427,-0.0085],[40.7608,-0.0017],[40.7788,0.0039],[40.7904,0.0103],[40.8051,0.0206],[40.8192,0.0264],[40.8301,0.0347],[40.841,0.0413],[40.8479,0.0472],[40.863,0.0453],[40.8778,0.053],[40.8924,0.0624],[40.9026,0.0664],[40.9137,0.0703],[40.9182,0.0751],[40.941,0.083],[40.9539,0.0866],[40.9627,0.0921],[40.9837,0.1018],[40.9835,-0.0037],[40.9861,-0.0138],[40.9865,-0.0663],[40.9876,-0.4093],[40.9865,-0.837],[41.023,-0.8849],[41.1587,-1.0687],[41.3784,-1.3633],[41.5603,-1.6117],[41.5602,-1.6433],[41.5605,-1.662],[41.5444,-1.6805],[41.534,-1.6946],[41.5205,-1.7115],[41.5087,-1.7276],[41.4992,-1.7489],[41.5001,-1.7515],[41.4961,-1.7556],[41.4892,-1.7647],[41.4826,-1.7726],[41.4742,-1.78],[41.4657,-1.7889],[41.4545,-1.7985],[41.4451,-1.8059],[41.4359,-1.8197],[41.4341,-1.8279],[41.4303,-1.8318],[41.4236,-1.8402],[41.4171,-1.8498],[41.4109,-1.8589],[41.4064,-1.8653],[41.4013,-1.8685],[41.3961,-1.8733],[41.3896,-1.8743],[41.3871,-1.8739],[41.3874,-1.8797],[41.3867,-1.8838],[41.3881,-1.8907],[41.3869,-1.8927],[41.3854,-1.8952],[41.3809,-1.9006],[41.3762,-1.9061],[41.3709,-1.9118],[41.3657,-1.9169],[41.359,-1.9237],[41.3536,-1.9292],[41.3495,-1.9346],[41.3389,-1.946],[41.3326,-1.9528],[41.3258,-1.9664],[41.3201,-1.9732],[41.3156,-1.9743],[41.3043,-1.9811],[41.2957,-1.9935],[41.2931,-1.9946],[41.2884,-1.9992],[41.2869,-1.9974],[41.2828,-1.9924],[41.284,-1.9799],[41.2852,-1.9775],[41.2909,-1.9663],[41.292,-1.9618],[41.2921,-1.9561],[41.2876,-1.9516],[41.2752,-1.9516],[41.2735,-1.9533],[41.2548,-1.9719],[41.2481,-1.9718],[41.2476,-1.9613],[41.2493,-1.9594],[41.2606,-1.9504],[41.2629,-1.9447],[41.2629,-1.9368],[41.2585,-1.9323],[41.2517,-1.9368],[41.249,-1.9368],[41.246,-1.9368],[41.2427,-1.9334],[41.2424,-1.9296],[41.2349,-1.9209],[41.2361,-1.9107],[41.2316,-1.9061],[41.2244,-1.9063],[41.2183,-1.9122],[41.1988,-1.931],[41.1965,-1.931],[41.1886,-1.9378],[41.1863,-1.9378],[41.1807,-1.9411],[41.1728,-1.9479],[41.1716,-1.9547],[41.1693,-1.9581],[41.1693,-1.9604],[41.1568,-1.9728],[41.1523,-1.9751],[41.1467,-1.9762],[41.1342,-1.983],[41.1309,-1.983],[41.1275,-1.9852],[41.1218,-1.9852],[41.1174,-1.9807],[41.1082,-1.9792],[41.0891,-1.9931],[41.0767,-1.9987],[41.063,-2.0168],[41.0497,-2.0228],[41.0449,-2.0326],[41.0437,-2.0383],[41.0335,-2.053],[41.0245,-2.0552],[41.0211,-2.0575],[41.0211,-2.0598],[41.0177,-2.0654],[41.0131,-2.0665],[41.0102,-2.0621],[41.0087,-2.0597],[41.0076,-2.0529],[41.0009,-2.0461],[40.9975,-2.0461],[40.9942,-2.0427],[40.9897,-2.0302],[40.9921,-2.0121],[40.9955,-2.0053],[40.999,-1.9906],[40.9979,-1.9883],[40.9991,-1.9849],[40.9992,-1.969],[41.0072,-1.9532],[41.0151,-1.943],[41.0276,-1.9362],[41.057,-1.9069],[41.0605,-1.8978],[41.0605,-1.8899],[41.0527,-1.8808],[41.0482,-1.8785],[41.0448,-1.8887],[41.0449,-1.891],[41.0312,-1.9057],[41.0255,-1.909],[41.0121,-1.9109],[41.0074,-1.9158],[41.0074,-1.9181],[41.0017,-1.9271],[40.9961,-1.9294],[40.9938,-1.9316],[40.9926,-1.9384],[40.9904,-1.9418],[40.9734,-1.9554],[40.9711,-1.9599],[40.9721,-1.969],[40.9777,-1.9781],[40.9753,-1.9973],[40.9719,-2.0041],[40.9673,-2.0222],[40.9559,-2.0415],[40.9558,-2.0471],[40.9603,-2.0551],[40.9602,-2.0675],[40.9646,-2.0755],[40.9634,-2.0857],[40.96,-2.0913],[40.9544,-2.0936],[40.9476,-2.0936],[40.9454,-2.0913],[40.9446,-2.0892],[40.9421,-2.0822],[40.9433,-2.0732],[40.9422,-2.063],[40.9333,-2.0494],[40.9322,-2.0437],[40.9345,-2.0403],[40.9345,-2.038],[40.9368,-2.0358],[40.9368,-2.0312],[40.9278,-2.0233],[40.9189,-2.0097],[40.911,-2.0085],[40.9076,-2.0108],[40.8964,-2.0107],[40.8897,-2.0039],[40.8891,-1.9984],[40.8876,-1.9835],[40.8853,-1.9801],[40.8775,-1.9744],[40.8672,-1.9734],[40.8651,-1.9733],[40.8617,-1.9693],[40.8428,-1.9471],[40.8383,-1.9483],[40.8369,-1.9518],[40.8396,-1.9549],[40.8405,-1.9567],[40.8471,-1.9698],[40.8437,-1.9766],[40.8403,-1.9755],[40.8358,-1.9754],[40.8235,-1.9697],[40.8206,-1.9674],[40.8111,-1.9595],[40.7999,-1.955],[40.792,-1.9538],[40.783,-1.9492],[40.7763,-1.9504],[40.775,-1.9529],[40.774,-1.9549],[40.7751,-1.9583],[40.7848,-1.9613],[40.7883,-1.9654],[40.7916,-1.9699],[40.7945,-1.9738],[40.7997,-1.9833],[40.8117,-1.984],[40.8198,-1.9881],[40.8216,-1.989],[40.8247,-1.9911],[40.8334,-1.997],[40.8379,-1.9981],[40.8424,-2.0015],[40.8505,-2.0003],[40.8524,-2.0023],[40.8549,-2.0029],[40.8638,-2.005],[40.8682,-2.0107],[40.8682,-2.0141],[40.8648,-2.0175],[40.858,-2.0186],[40.8524,-2.022],[40.8478,-2.0212],[40.8444,-2.0229],[40.8403,-2.0249],[40.8409,-2.0304],[40.8453,-2.0309],[40.8624,-2.031],[40.876,-2.0299],[40.8906,-2.0322],[40.8926,-2.0318],[40.9008,-2.03],[40.9063,-2.0357],[40.9063,-2.0459],[40.8904,-2.0481],[40.8826,-2.0492],[40.8803,-2.0515],[40.8803,-2.0545],[40.8893,-2.064],[40.8858,-2.0696],[40.8802,-2.0719],[40.8711,-2.0775],[40.8666,-2.0775],[40.8632,-2.0809],[40.861,-2.0809],[40.8585,-2.0827],[40.8531,-2.0866],[40.8564,-2.0911],[40.8643,-2.0911],[40.8742,-2.0887],[40.8812,-2.0946],[40.8834,-2.098],[40.8879,-2.098],[40.8936,-2.0923],[40.8971,-2.0921],[40.9018,-2.097],[40.9043,-2.0997],[40.907,-2.1003],[40.9126,-2.106],[40.9148,-2.1105],[40.9148,-2.123],[40.9159,-2.1252],[40.9102,-2.1742],[40.9122,-2.1792],[40.9176,-2.1933],[40.9264,-2.2284],[40.9264,-2.2352],[40.9241,-2.2375],[40.9219,-2.2375],[40.9173,-2.2333],[40.9118,-2.2284],[40.9107,-2.225],[40.9062,-2.2193],[40.9001,-2.2186],[40.8961,-2.2181],[40.8965,-2.213],[40.8973,-2.2023],[40.8943,-2.1982],[40.8811,-2.2068],[40.8735,-2.2181],[40.8746,-2.226],[40.8711,-2.2419],[40.8587,-2.252],[40.8539,-2.2541],[40.8508,-2.2554],[40.8361,-2.2543],[40.8305,-2.2497],[40.8274,-2.2497],[40.8035,-2.2496],[40.8001,-2.253],[40.7989,-2.2576],[40.7955,-2.2678],[40.7909,-2.2723],[40.7819,-2.2745],[40.7797,-2.2723],[40.7789,-2.2669],[40.7775,-2.2564],[40.7753,-2.2541],[40.773,-2.2541],[40.7644,-2.2608],[40.7561,-2.262],[40.7527,-2.2595],[40.7382,-2.2416],[40.7091,-2.2177],[40.7077,-2.2277],[40.7033,-2.2211],[40.6979,-2.2264],[40.7034,-2.2403],[40.6977,-2.2454],[40.7109,-2.2493],[40.7207,-2.2588],[40.7173,-2.2669],[40.7082,-2.2737],[40.7103,-2.2784],[40.7162,-2.2803],[40.721,-2.2802],[40.7255,-2.2801],[40.7303,-2.28],[40.7368,-2.2801],[40.7492,-2.2813],[40.7559,-2.2881],[40.7465,-2.2946],[40.7468,-2.2983],[40.7558,-2.3051],[40.7546,-2.3096],[40.7456,-2.3085],[40.7366,-2.3039],[40.7287,-2.2989],[40.7211,-2.2947],[40.713,-2.2936],[40.7051,-2.3004],[40.704,-2.3038],[40.705,-2.3106],[40.705,-2.3197],[40.7117,-2.3231],[40.7195,-2.3224],[40.7241,-2.322],[40.7305,-2.3227],[40.7333,-2.3246],[40.7359,-2.3264],[40.7387,-2.3271],[40.745,-2.3299],[40.7522,-2.3289],[40.7601,-2.3357],[40.7612,-2.3391],[40.7611,-2.3482],[40.7622,-2.3527],[40.7723,-2.3652],[40.7756,-2.3731],[40.7755,-2.3799],[40.7721,-2.3867],[40.7607,-2.4026],[40.7608,-2.4072],[40.7629,-2.4094],[40.7697,-2.4082],[40.7742,-2.4049],[40.7935,-2.3822],[40.7947,-2.3766],[40.7993,-2.3709],[40.8004,-2.3652],[40.8072,-2.3585],[40.8128,-2.3641],[40.8162,-2.3721],[40.8251,-2.3812],[40.8262,-2.3846],[40.8318,-2.3914],[40.8317,-2.3982],[40.8227,-2.4084],[40.8193,-2.4095],[40.8121,-2.4144],[40.8046,-2.4197],[40.7773,-2.4468],[40.7762,-2.4513],[40.7705,-2.4615],[40.7625,-2.4683],[40.7321,-2.4739],[40.7275,-2.4784],[40.723,-2.4795],[40.714,-2.4863],[40.7117,-2.4863],[40.706,-2.4897],[40.7038,-2.4897],[40.6981,-2.4942],[40.6868,-2.4999],[40.6709,-2.5168],[40.6652,-2.5259],[40.6527,-2.5383],[40.6482,-2.5394],[40.6401,-2.5426],[40.6323,-2.5516],[40.6229,-2.5617],[40.6221,-2.5637],[40.6164,-2.5779],[40.6062,-2.5881],[40.6006,-2.5869],[40.5916,-2.5813],[40.586,-2.5778],[40.5639,-2.5581],[40.5615,-2.5559],[40.5596,-2.5551],[40.5557,-2.5535],[40.5532,-2.5525],[40.5512,-2.5517],[40.5344,-2.5437],[40.5276,-2.5414],[40.5231,-2.5414],[40.5175,-2.5369],[40.5164,-2.5335],[40.5176,-2.521],[40.5165,-2.5142],[40.5132,-2.5108],[40.5087,-2.5108],[40.5064,-2.513],[40.4962,-2.517],[40.4935,-2.5169],[40.4906,-2.5187],[40.4861,-2.5198],[40.4782,-2.5186],[40.4759,-2.5198],[40.4726,-2.5198],[40.4658,-2.5254],[40.4635,-2.5311],[40.4499,-2.5424],[40.4473,-2.5459],[40.4508,-2.549],[40.4553,-2.5491],[40.4611,-2.5498],[40.4718,-2.5483],[40.476,-2.5478],[40.478,-2.5458],[40.4803,-2.5459],[40.4859,-2.5425],[40.4927,-2.5413],[40.4961,-2.5391],[40.5006,-2.5391],[40.5051,-2.5425],[40.5051,-2.5462],[40.5028,-2.5516],[40.4982,-2.555],[40.4644,-2.5617],[40.4599,-2.5617],[40.4576,-2.5639],[40.4486,-2.5662],[40.4429,-2.5662],[40.4395,-2.5684],[40.4361,-2.5684],[40.4237,-2.5741],[40.4078,-2.576],[40.3997,-2.5808],[40.3966,-2.5819],[40.3821,-2.5902],[40.3803,-2.5913],[40.3649,-2.6011],[40.3589,-2.6014],[40.3527,-2.6047],[40.3445,-2.6089],[40.3382,-2.6122],[40.336,-2.6134],[40.3276,-2.6214],[40.3232,-2.6209],[40.3208,-2.6271],[40.3129,-2.6305],[40.3083,-2.635],[40.3072,-2.6384],[40.2969,-2.6486],[40.2799,-2.6621],[40.2766,-2.6587],[40.2766,-2.6539],[40.2766,-2.6496],[40.2722,-2.6451],[40.2688,-2.6451],[40.2665,-2.6473],[40.2671,-2.6523],[40.2654,-2.6548],[40.2618,-2.6757],[40.2516,-2.6823],[40.2459,-2.6926],[40.2336,-2.7048],[40.2288,-2.7095],[40.2218,-2.7161],[40.2207,-2.7186],[40.2129,-2.7356],[40.2084,-2.7402],[40.2061,-2.7402],[40.2027,-2.7424],[40.1995,-2.7417],[40.1968,-2.74],[40.1974,-2.7352],[40.1969,-2.7322],[40.1991,-2.7211],[40.201,-2.7103],[40.202,-2.7071],[40.2012,-2.7021],[40.194,-2.6959],[40.1839,-2.6981],[40.1794,-2.7019],[40.1777,-2.7033],[40.1796,-2.714],[40.1814,-2.7242],[40.1802,-2.7299],[40.1757,-2.731],[40.1701,-2.7344],[40.1688,-2.7367],[40.1647,-2.7417],[40.1654,-2.7536],[40.1721,-2.7627],[40.1721,-2.7695],[40.1702,-2.7727],[40.1655,-2.7813],[40.1674,-2.7933],[40.1662,-2.8001],[40.1639,-2.8035],[40.1639,-2.8103],[40.1686,-2.8169],[40.1711,-2.8235],[40.1731,-2.8268],[40.1782,-2.835],[40.1839,-2.8444],[40.1827,-2.8546],[40.1747,-2.8704],[40.1713,-2.884],[40.1644,-2.8931],[40.1621,-2.893],[40.165,-2.8882],[40.1686,-2.8783],[40.1706,-2.8688],[40.1633,-2.8665],[40.1528,-2.8748],[40.1378,-2.87],[40.1291,-2.8742],[40.12,-2.8757],[40.1085,-2.8711],[40.0947,-2.8665],[40.0844,-2.866],[40.08,-2.8574],[40.0673,-2.8528],[40.0549,-2.8489],[40.0516,-2.8371],[40.0399,-2.8286],[40.0301,-2.8266],[40.0157,-2.833],[40.0158,-2.8238],[40.0096,-2.814],[40.0076,-2.8086],[40.0082,-2.7994],[40.006,-2.7904],[40.0028,-2.7778],[39.9972,-2.7676],[39.9978,-2.7593],[39.9884,-2.7448],[39.9791,-2.7419],[39.9694,-2.7424],[39.9635,-2.7368],[39.9518,-2.7289],[39.9419,-2.7214],[39.9311,-2.7143],[39.9286,-2.7084],[39.9251,-2.7015],[39.9198,-2.7034],[39.9197,-2.7129],[39.9091,-2.7208],[39.9011,-2.7255],[39.8902,-2.7288],[39.8742,-2.7306],[39.8571,-2.7379],[39.8428,-2.7365],[39.8314,-2.7393],[39.8268,-2.7445],[39.8205,-2.7525],[39.8145,-2.7591],[39.8084,-2.7567],[39.809,-2.7477],[39.8175,-2.7367],[39.8128,-2.718],[39.8047,-2.707],[39.7893,-2.7018],[39.7745,-2.703],[39.7586,-2.7031],[39.7512,-2.7106],[39.7366,-2.7178],[39.728,-2.7118],[39.7207,-2.7175],[39.7121,-2.7109],[39.6946,-2.7136],[39.6835,-2.7124],[39.6756,-2.7049],[39.6655,-2.7087],[39.6565,-2.7032],[39.6454,-2.703],[39.6394,-2.7082],[39.639,-2.7186],[39.6323,-2.7256],[39.622,-2.7367],[39.61,-2.7469],[39.5941,-2.7473],[39.5738,-2.7544],[39.5512,-2.7613],[39.5318,-2.7658],[39.5153,-2.7702],[39.5059,-2.7748],[39.4967,-2.7855],[39.4861,-2.7992],[39.4762,-2.8085],[39.4667,-2.821],[39.4581,-2.8335],[39.4497,-2.8477],[39.4409,-2.8584],[39.4342,-2.8712],[39.424,-2.884],[39.4107,-2.8895],[39.3906,-2.8981],[39.3769,-2.9046],[39.3673,-2.9074],[39.358,-2.9077],[39.3482,-2.9103],[39.3441,-2.9208],[39.3367,-2.9318],[39.3308,-2.9478],[39.3223,-2.9544],[39.2994,-2.9505],[39.2799,-2.9446],[39.2613,-2.9422],[39.2516,-2.9522],[39.2422,-2.9555],[39.2288,-2.9536],[39.2178,-2.9615],[39.2102,-2.9671],[39.1991,-2.9679],[39.1895,-2.9705],[39.181,-2.9752],[39.1723,-2.9805],[39.1617,-2.9893],[39.1548,-2.9781],[39.1481,-2.9674],[39.1337,-2.9591],[39.1212,-2.9551],[39.1052,-2.9477],[39.0986,-2.9499],[39.0799,-2.9544],[39.0598,-2.9536],[39.0439,-2.9542],[39.033,-2.9556],[39.0133,-2.9631],[38.9946,-2.9701],[38.9823,-2.9715],[38.9746,-2.9702],[38.9494,-2.9624],[38.9165,-2.9609],[38.8949,-2.9549],[38.8764,-2.9463],[38.8661,-2.9498],[38.8546,-2.9606],[38.8469,-2.975],[38.8435,-2.9863],[38.8399,-3.0003],[38.8355,-3.0078],[38.8208,-3.0191],[38.8061,-3.0322],[38.7889,-3.0402],[38.7728,-3.0383],[38.7624,-3.0303],[38.7518,-3.0268],[38.7392,-3.0296],[38.7329,-3.0256],[38.7207,-3.0198],[38.7134,-3.0241],[38.7016,-3.0227],[38.6919,-3.0151],[38.6835,-3.0145],[38.6693,-3.0168],[38.6565,-3.0096],[38.6409,-3.0019],[38.6261,-3.0028],[38.6237,-2.994],[38.6073,-2.9932],[38.5975,-2.9829],[38.5813,-2.9842],[38.572,-2.9815],[38.5614,-2.9771],[38.5485,-2.9714],[38.5365,-2.9508],[38.5264,-2.94],[38.5144,-2.9227],[38.5058,-2.9043],[38.4978,-2.8885],[38.4896,-2.8724],[38.4909,-2.8634],[38.4964,-2.8584],[38.4899,-2.8352],[38.4826,-2.8173],[38.47,-2.7958],[38.4628,-2.7749],[38.4546,-2.7597],[38.4531,-2.7512],[38.4524,-2.7327],[38.4382,-2.7276],[38.4296,-2.72],[38.4284,-2.7129],[38.4272,-2.6971],[38.4197,-2.6811],[38.412,-2.6648],[38.4041,-2.6475],[38.3959,-2.6324],[38.3898,-2.6237],[38.3898,-2.6126],[38.3849,-2.6033],[38.3846,-2.5941],[38.3813,-2.5829],[38.379,-2.5697],[38.3718,-2.5629],[38.3583,-2.5509],[38.3583,-2.5386],[38.3562,-2.5229],[38.3504,-2.5161],[38.3553,-2.5069],[38.3544,-2.4917],[38.3497,-2.4734],[38.3437,-2.4596],[38.3278,-2.4436],[38.3128,-2.4249],[38.302,-2.4051],[38.2905,-2.3783],[38.2802,-2.3499],[38.2824,-2.3407],[38.2717,-2.3242],[38.2723,-2.3138],[38.272,-2.3011],[38.2654,-2.2901],[38.2628,-2.2785],[38.2626,-2.2596],[38.2575,-2.2542],[38.2453,-2.2447],[38.2378,-2.246],[38.2252,-2.2556],[38.2094,-2.275],[38.194,-2.2763],[38.1922,-2.2885],[38.1876,-2.2958],[38.1777,-2.3002],[38.1657,-2.3005],[38.1538,-2.3019],[38.1436,-2.2989],[38.1327,-2.2862],[38.1236,-2.2653],[38.1186,-2.2393],[38.1204,-2.2197],[38.1158,-2.2097],[38.1089,-2.1976],[38.1004,-2.1868],[38.09,-2.1866],[38.0852,-2.1706],[38.0768,-2.155],[38.0693,-2.1401],[38.0652,-2.1247],[38.0639,-2.1192],[38.064,-2.1118],[38.0628,-2.1028],[38.0603,-2.0854],[38.0555,-2.068],[38.0501,-2.0508],[38.0376,-2.0353],[38.0263,-2.0271],[38.0137,-2.0197],[38.002,-2.0134],[37.9939,-2.007],[37.9902,-1.9975],[37.9848,-1.9866],[37.9782,-1.9737],[37.9694,-1.971],[37.9652,-1.9603],[37.9615,-1.9469],[37.9605,-1.9376],[37.9629,-1.9314],[37.9662,-1.9246],[37.9649,-1.9153],[37.9626,-1.9026],[37.9657,-1.8959],[37.9703,-1.8928],[37.9697,-1.8838],[37.9633,-1.874],[37.9554,-1.8653],[37.9501,-1.8587],[37.9439,-1.8461],[37.937,-1.8312],[37.9319,-1.8129],[37.9311,-1.8002],[37.9295,-1.7877],[37.9242,-1.7781],[37.9146,-1.7664],[37.9049,-1.7595],[37.8977,-1.7499],[37.896,-1.7411],[37.8894,-1.7274],[37.8844,-1.7111],[37.8756,-1.6923],[37.8686,-1.6764],[37.8689,-1.6656],[37.8582,-1.6534],[37.8535,-1.6455],[37.8539,-1.6376],[37.8513,-1.627],[37.8435,-1.6155],[37.8386,-1.6069],[37.8372,-1.5969],[37.8357,-1.5867],[37.8345,-1.5784],[37.8289,-1.57],[37.8224,-1.5625],[37.8205,-1.5557],[37.8191,-1.543],[37.8179,-1.5321],[37.8111,-1.5281],[37.8015,-1.5187],[37.7924,-1.5178],[37.7831,-1.5186],[37.7718,-1.5137],[37.7616,-1.5082],[37.7533,-1.5018],[37.7462,-1.4886],[37.7414,-1.4746],[37.7416,-1.4638],[37.7397,-1.4515],[37.7374,-1.4404],[37.7336,-1.4355],[37.7261,-1.4351],[37.7228,-1.4267],[37.7238,-1.4177],[37.7114,-1.4168],[37.7016,-1.4143],[37.6949,-1.4082],[37.6909,-1.3984],[37.6868,-1.3877],[37.6803,-1.3804],[37.6745,-1.3729],[37.6669,-1.3601],[37.6613,-1.3434],[37.6524,-1.3282],[37.6501,-1.3148],[37.6505,-1.3007],[37.6513,-1.2913],[37.6478,-1.2838],[37.6479,-1.2778],[37.6457,-1.2702],[37.6418,-1.2613],[37.6353,-1.2529],[37.6346,-1.2404],[37.6311,-1.2276],[37.6264,-1.2239],[37.6151,-1.2202],[37.6026,-1.2223],[37.5947,-1.2147],[37.5838,-1.2049],[37.5793,-1.2084],[37.5665,-1.2045],[37.5517,-1.2008],[37.5376,-1.1996],[37.5241,-1.1993],[37.5061,-1.1976],[37.4846,-1.1965],[37.4674,-1.1932],[37.4613,-1.1891],[37.4521,-1.1774],[37.4411,-1.1687],[37.4324,-1.1581],[37.4208,-1.1471],[37.4096,-1.1355],[37.3961,-1.1217],[37.3843,-1.1104],[37.3721,-1.1021],[37.3617,-1.1003],[37.3523,-1.0932],[37.3318,-1.0815],[37.3122,-1.0645],[37.2911,-1.0521],[37.2733,-1.054],[37.2561,-1.0519],[37.2448,-1.0461],[37.2379,-1.0384],[37.2285,-1.0417],[37.2135,-1.0465],[37.2021,-1.0497],[37.1758,-1.058],[37.1705,-1.0676],[37.1596,-1.0685],[37.1449,-1.0643],[37.122,-1.0627],[37.1048,-1.058],[37.0878,-1.0524],[37.0781,-1.0457],[37.0658,-1.0414],[37.0587,-1.0389],[37.0443,-1.0308],[37.03,-1.0275],[37.0245,-1.02],[37.0163,-1.0173],[36.9976,-1.0057],[36.9944,-0.9978],[36.9838,-0.9909],[36.9775,-0.9838],[36.9651,-0.9778],[36.9518,-0.9725],[36.9385,-0.963],[36.9238,-0.9579],[36.9081,-0.9475],[36.8942,-0.9382],[36.8807,-0.928],[36.8618,-0.9143],[36.8495,-0.9039],[36.8394,-0.8961],[36.8308,-0.8879],[36.823,-0.8813],[36.8088,-0.8743],[36.7993,-0.8741],[36.7841,-0.8692],[36.7701,-0.8646],[36.7559,-0.8606],[36.7382,-0.858],[36.7232,-0.8556],[36.7122,-0.8503],[36.7052,-0.8504],[36.6888,-0.8487],[36.6728,-0.845],[36.6589,-0.8442],[36.6405,-0.8439],[36.6231,-0.8431],[36.6085,-0.8438],[36.6032,-0.8342],[36.6054,-0.8278],[36.6119,-0.8177],[36.6104,-0.8108],[36.6071,-0.8034],[36.6072,-0.7967],[36.6043,-0.7908],[36.6008,-0.7839],[36.6059,-0.7754],[36.6024,-0.7652],[36.5978,-0.7543],[36.5972,-0.7473],[36.6077,-0.7397],[36.6175,-0.727],[36.6219,-0.7183],[36.6283,-0.7152],[36.6328,-0.7028],[36.6359,-0.6906],[36.6412,-0.6817],[36.6488,-0.6757],[36.6545,-0.6721],[36.6565,-0.661],[36.6621,-0.6508],[36.6715,-0.6463],[36.6831,-0.6449],[36.6965,-0.6406],[36.7034,-0.6361],[36.713,-0.6291],[36.7246,-0.615],[36.7135,-0.6107],[36.7071,-0.5979],[36.6992,-0.5804],[36.6945,-0.5697],[36.6853,-0.5656],[36.6841,-0.5541],[36.6811,-0.5443],[36.6819,-0.5312],[36.6777,-0.5265],[36.676,-0.5191],[36.6736,-0.51],[36.6729,-0.4966],[36.6718,-0.4881],[36.6699,-0.4811],[36.6734,-0.4731],[36.676,-0.4665],[36.6731,-0.4609],[36.6643,-0.457],[36.659,-0.4498],[36.6591,-0.4387],[36.6627,-0.4293],[36.659,-0.4191],[36.6536,-0.4146],[36.6468,-0.4129],[36.6439,-0.405],[36.6388,-0.4007],[36.6311,-0.3951],[36.638,-0.3908],[36.6375,-0.382],[36.63,-0.3782],[36.6208,-0.3686],[36.6212,-0.36],[36.6252,-0.3504],[36.6284,-0.3447],[36.6267,-0.3394],[36.625,-0.3269],[36.6211,-0.3181],[36.6246,-0.3064],[36.6257,-0.2972],[36.6362,-0.2939],[36.6406,-0.3039],[36.6457,-0.3116],[36.6587,-0.3227],[36.6684,-0.3282],[36.674,-0.3338],[36.6901,-0.3306],[36.7042,-0.3348],[36.7173,-0.336],[36.7346,-0.3326],[36.7517,-0.3274],[36.7686,-0.3206],[36.7857,-0.3133],[36.8032,-0.3099],[36.8158,-0.3074],[36.8308,-0.3033],[36.8501,-0.2985],[36.867,-0.2952],[36.8925,-0.2901],[36.9085,-0.295],[36.9245,-0.2932],[36.9303,-0.2776],[36.9358,-0.26],[36.9379,-0.2549],[36.9373,-0.2492],[36.9438,-0.2428],[36.9484,-0.2381],[36.9492,-0.2252],[36.9519,-0.2153],[36.9679,-0.2029],[36.9821,-0.1946],[36.9966,-0.1834],[37.0069,-0.1748],[37.0262,-0.1562],[37.0379,-0.1636],[37.0496,-0.17],[37.065,-0.1749],[37.0784,-0.1782],[37.097,-0.1778],[37.1121,-0.1811],[37.1296,-0.1817],[37.1507,-0.1804],[37.1664,-0.1796],[37.1857,-0.1831],[37.2028,-0.1857],[37.2106,-0.1855],[37.2274,-0.1848],[37.2463,-0.1859],[37.2556,-0.1833],[37.2679,-0.1784],[37.2771,-0.1756],[37.2907,-0.1765],[37.3045,-0.1761],[37.3134,-0.175],[37.325,-0.17],[37.3297,-0.1634],[37.3311,-0.1531],[37.3336,-0.1454],[37.3357,-0.1369],[37.3385,-0.1247],[37.3467,-0.1171],[37.3483,-0.1028],[37.351,-0.0886],[37.3551,-0.0673],[37.3672,-0.0592],[37.375,-0.0571],[37.3804,-0.0523],[37.3888,-0.0473],[37.3965,-0.046],[37.4047,-0.0463],[37.4102,-0.0392],[37.4127,-0.0334],[37.4127,-0.0274],[37.4145,-0.0164],[37.4125,-0.0072],[37.4164,0.0025],[37.4257,0.0094],[37.4325,0.0148],[37.4405,0.0199],[37.4485,0.0286],[37.4601,0.0372],[37.4737,0.045],[37.483,0.0507],[37.4928,0.0564],[37.5023,0.0628],[37.5078,0.0733],[37.5137,0.0786],[37.5248,0.085],[37.5299,0.093],[37.536,0.0992],[37.5424,0.0989],[37.5492,0.1005],[37.5539,0.1041],[37.5583,0.1092],[37.5739,0.1128],[37.5798,0.1153],[37.5887,0.1177],[37.5973,0.1195],[37.6032,0.1236],[37.6096,0.1321],[37.6157,0.1413],[37.631,0.1403],[37.6396,0.1467],[37.6487,0.1473],[37.658,0.1488],[37.667,0.1481],[37.6754,0.148],[37.6845,0.1434],[37.6884,0.1489],[37.7004,0.1492],[37.7081,0.1487],[37.716,0.1461],[37.7188,0.1544],[37.7324,0.1486],[37.739,0.146],[37.7451,0.1395],[37.7564,0.1387],[37.7596,0.1449],[37.7635,0.1555],[37.7739,0.1589],[37.7828,0.1616],[37.7919,0.1673],[37.7946,0.1746],[37.8069,0.1806],[37.8151,0.183],[37.8271,0.1832],[37.8396,0.187],[37.8489,0.193],[37.853,0.2038],[37.8589,0.2097],[37.8735,0.2239],[37.8808,0.2319],[37.8892,0.2436],[37.8958,0.25],[37.9017,0.2592],[37.899,0.2692],[37.8961,0.2745],[37.9038,0.2839],[37.9041,0.2899],[37.9091,0.3014],[37.9082,0.3099],[37.916,0.3212],[37.9182,0.3269],[37.918,0.3327],[37.9215,0.3419],[37.9269,0.3481],[37.9365,0.3501],[37.9487,0.3551],[37.9533,0.364],[37.9517,0.3721],[37.9574,0.3813],[37.9651,0.3819],[37.9706,0.3819],[37.9733,0.3874],[37.9715,0.3927],[37.97,0.4015],[37.9686,0.4087],[37.9727,0.4172],[37.9768,0.4273],[37.9828,0.4367],[37.99,0.4463],[37.9901,0.4542],[37.9957,0.4574],[38.0037,0.464],[38.0033,0.4718],[38.0149,0.4755],[38.0205,0.4763],[38.0292,0.48],[38.0401,0.4792],[38.0525,0.4773],[38.062,0.4726],[38.0688,0.4689]]]}}]}