{"type":"FeatureCollection","features":[{"type":"Feature","properties":{"name":"Tana River basin","source":"HydroBASINS v1c (standard), Africa level 7; dissolve of MAIN_BAS 1070008470 (33 sub-basins)","area_km2":95248.8,"citation":"Lehner, B., Grill G. (2013). Hydrological Processes, 27(15): 2171-2186. https://www.hydrosheds.org"},"geometry":{"type":"Polygon","coordinates":[[[38.3746,-2.5601],[38.3629,-2.5483],[38.3621,-2.5434],[38.3587,-2.5399],[38.358,-2.5101],[38.3545,-2.5066],[38.3538,-2.5017],[38.3504,-2.4983],[38.35,-2.4833],[38.35,-2.4792],[38.3465,-2.4783],[38.3453,-2.4686],[38.3422,-2.4647],[38.3411,-2.4603],[38.3381,-2.4564],[38.3366,-2.4509],[38.3311,-2.4494],[38.3218,-2.4411],[38.3203,-2.4353],[38.3172,-2.4314],[38.316,-2.4217],[38.3125,-2.4208],[38.3121,-2.4184],[38.3045,-2.4108],[38.3038,-2.4059],[38.3004,-2.4024],[38.2996,-2.3976],[38.2962,-2.3941],[38.2955,-2.3851],[38.292,-2.3816],[38.2913,-2.3767],[38.2879,-2.3733],[38.2871,-2.3684],[38.2795,-2.3608],[38.2792,-2.35],[38.2757,-2.3491],[38.2744,-2.3395],[38.2713,-2.3354],[38.2745,-2.3312],[38.2714,-2.3272],[38.2703,-2.3103],[38.2672,-2.3064],[38.2661,-2.302],[38.2631,-2.298],[38.2619,-2.2936],[38.2589,-2.2897],[38.2578,-2.2853],[38.2546,-2.2812],[38.2578,-2.2772],[38.2589,-2.2659],[38.2547,-2.2605],[38.2536,-2.2561],[38.2464,-2.248],[38.2458,-2.2458],[38.2392,-2.2455],[38.2358,-2.242],[38.225,-2.2417],[38.2217,-2.2425],[38.22,-2.2491],[38.2145,-2.2506],[38.2105,-2.2536],[38.2061,-2.2547],[38.1968,-2.2631],[38.195,-2.27],[38.1881,-2.2717],[38.1875,-2.2875],[38.1866,-2.291],[38.1728,-2.2922],[38.1689,-2.2953],[38.1561,-2.2964],[38.1522,-2.2994],[38.1375,-2.3],[38.1369,-2.2978],[38.1256,-2.2855],[38.1244,-2.2728],[38.1204,-2.2676],[38.1134,-2.2658],[38.1119,-2.2603],[38.1089,-2.2564],[38.1078,-2.2534],[38.1119,-2.248],[38.1131,-2.2326],[38.1089,-2.2272],[38.1078,-2.2228],[38.1006,-2.2147],[38.1,-2.2042],[38.0958,-2.2042],[38.0952,-2.1854],[38.0914,-2.1801],[38.0812,-2.1785],[38.0763,-2.175],[38.0744,-2.1687],[38.0715,-2.1646],[38.0702,-2.1562],[38.0631,-2.148],[38.0619,-2.1437],[38.059,-2.1396],[38.0576,-2.1258],[38.05,-2.125],[38.0496,-2.1142],[38.0462,-2.1108],[38.0455,-2.0941],[38.05,-2.0896],[38.0462,-2.0858],[38.0455,-2.0767],[38.042,-2.0733],[38.0413,-2.0684],[38.0379,-2.0649],[38.0375,-2.0542],[38.0375,-2.05],[38.0351,-2.0496],[38.0295,-2.0441],[38.0288,-2.0392],[38.0254,-2.0358],[38.0246,-2.0309],[38.0191,-2.0254],[38.0059,-2.0246],[37.9983,-2.017],[37.9892,-2.0163],[37.9837,-2.0108],[37.9833,-2.0083],[37.9827,-2.002],[37.9798,-1.998],[37.9785,-1.977],[37.9756,-1.9729],[37.9794,-1.9675],[37.9594,-1.9659],[37.9573,-1.9591],[37.95,-1.9583],[37.9506,-1.952],[37.9536,-1.948],[37.955,-1.9425],[37.9583,-1.9417],[37.9587,-1.9392],[37.9621,-1.9358],[37.9629,-1.9191],[37.9583,-1.9146],[37.9621,-1.9108],[37.9625,-1.8917],[37.9618,-1.8844],[37.9549,-1.8823],[37.9535,-1.8687],[37.95,-1.8638],[37.9437,-1.8619],[37.9382,-1.8576],[37.9368,-1.8383],[37.9292,-1.8375],[37.9286,-1.827],[37.9256,-1.823],[37.9244,-1.8159],[37.9286,-1.8105],[37.9297,-1.8076],[37.9256,-1.8022],[37.9244,-1.7936],[37.9214,-1.7897],[37.9203,-1.7853],[37.9172,-1.7814],[37.916,-1.7717],[37.9125,-1.7708],[37.9101,-1.7705],[37.9024,-1.7629],[37.9,-1.7625],[37.8991,-1.7592],[37.8924,-1.7574],[37.8911,-1.7478],[37.8881,-1.7439],[37.8869,-1.7395],[37.8839,-1.7355],[37.8828,-1.7311],[37.8797,-1.7272],[37.8786,-1.7228],[37.8756,-1.7189],[37.8744,-1.7103],[37.8714,-1.7064],[37.8703,-1.6978],[37.8631,-1.6897],[37.8619,-1.6811],[37.8547,-1.673],[37.8536,-1.6561],[37.8453,-1.6468],[37.8417,-1.6458],[37.8411,-1.627],[37.8381,-1.623],[37.8369,-1.6145],[37.8297,-1.6064],[37.8286,-1.602],[37.8256,-1.598],[37.8244,-1.577],[37.8214,-1.573],[37.8199,-1.5673],[37.8125,-1.5667],[37.8125,-1.5458],[37.8119,-1.5436],[37.7994,-1.5301],[37.7936,-1.5286],[37.7897,-1.5256],[37.7686,-1.5244],[37.748,-1.5047],[37.7425,-1.5033],[37.7411,-1.4978],[37.7381,-1.4939],[37.7369,-1.4895],[37.7329,-1.4843],[37.7292,-1.4833],[37.7288,-1.4642],[37.7254,-1.4608],[37.7246,-1.4559],[37.7212,-1.4524],[37.7205,-1.4434],[37.717,-1.4399],[37.7167,-1.4375],[37.7142,-1.4371],[37.7108,-1.4337],[37.7017,-1.433],[37.6899,-1.4212],[37.6833,-1.4208],[37.683,-1.4101],[37.6795,-1.4066],[37.6788,-1.3976],[37.6629,-1.3816],[37.6621,-1.3767],[37.6587,-1.3733],[37.658,-1.3684],[37.6545,-1.3649],[37.6538,-1.3601],[37.6504,-1.3566],[37.6496,-1.3476],[37.6462,-1.3441],[37.6455,-1.3392],[37.6379,-1.3316],[37.6375,-1.325],[37.6371,-1.3101],[37.6337,-1.3066],[37.633,-1.2983],[37.6371,-1.2941],[37.6379,-1.2816],[37.6337,-1.2774],[37.6333,-1.2708],[37.63,-1.27],[37.6286,-1.2645],[37.6256,-1.2605],[37.625,-1.2458],[37.6244,-1.2395],[37.6215,-1.2355],[37.6202,-1.2228],[37.6173,-1.2188],[37.6157,-1.2081],[37.6105,-1.2119],[37.602,-1.2131],[37.598,-1.216],[37.5937,-1.2173],[37.5896,-1.2203],[37.5855,-1.2173],[37.576,-1.2159],[37.575,-1.2125],[37.5684,-1.2121],[37.5649,-1.2087],[37.5517,-1.208],[37.5441,-1.2004],[37.5375,-1.2],[37.5333,-1.2],[37.5309,-1.1996],[37.5274,-1.1962],[37.525,-1.1958],[37.5061,-1.1964],[37.5022,-1.1994],[37.4909,-1.2006],[37.4855,-1.1964],[37.4826,-1.1953],[37.4772,-1.1994],[37.4728,-1.2006],[37.4689,-1.2036],[37.4657,-1.2047],[37.448,-1.1881],[37.4436,-1.1869],[37.4355,-1.1797],[37.43,-1.1783],[37.4286,-1.1728],[37.4214,-1.1647],[37.4203,-1.1603],[37.4047,-1.1439],[37.4042,-1.1375],[37.4017,-1.1371],[37.3983,-1.1337],[37.3934,-1.133],[37.3899,-1.1295],[37.3833,-1.1292],[37.3809,-1.1288],[37.3712,-1.1191],[37.3705,-1.1142],[37.3608,-1.1045],[37.3434,-1.1038],[37.3108,-1.0712],[37.3059,-1.0705],[37.2983,-1.0629],[37.2934,-1.0621],[37.2899,-1.0587],[37.2684,-1.058],[37.2649,-1.0545],[37.2434,-1.0538],[37.2379,-1.0483],[37.2375,-1.0458],[37.2342,-1.045],[37.2325,-1.0385],[37.2284,-1.0369],[37.223,-1.0411],[37.2186,-1.0422],[37.2147,-1.0453],[37.2103,-1.0464],[37.2064,-1.0494],[37.1895,-1.0506],[37.1855,-1.0536],[37.1811,-1.0547],[37.176,-1.0587],[37.1741,-1.0658],[37.1708,-1.0667],[37.1699,-1.0701],[37.1603,-1.0714],[37.1427,-1.0881],[37.1301,-1.0868],[37.1283,-1.0799],[37.1186,-1.0786],[37.1147,-1.0756],[37.0978,-1.0744],[37.0897,-1.0672],[37.0853,-1.0661],[37.0772,-1.0589],[37.0686,-1.0578],[37.0647,-1.0547],[37.0592,-1.0533],[37.0578,-1.0478],[37.0547,-1.0439],[37.0542,-1.0417],[37.0436,-1.0411],[37.0397,-1.038],[37.0311,-1.037],[37.0272,-1.0339],[37.0228,-1.0328],[37.0147,-1.0255],[37.0061,-1.0245],[36.9981,-1.0172],[36.9936,-1.0161],[36.9856,-1.0089],[36.9811,-1.0078],[36.976,-1.0037],[36.9716,-1.0051],[36.9708,-1.0083],[36.9686,-1.0078],[36.9647,-1.0047],[36.9592,-1.0033],[36.9583,-1.0],[36.955,-0.9991],[36.9533,-0.9924],[36.9436,-0.9911],[36.9272,-0.9756],[36.9208,-0.975],[36.9186,-0.9744],[36.8967,-0.9535],[36.895,-0.9467],[36.8895,-0.9453],[36.8772,-0.9339],[36.8686,-0.9328],[36.848,-0.9131],[36.8436,-0.9119],[36.8355,-0.9047],[36.8311,-0.9036],[36.823,-0.8964],[36.8145,-0.8953],[36.8105,-0.8922],[36.8061,-0.8911],[36.8022,-0.8881],[36.7842,-0.8869],[36.7828,-0.8811],[36.7782,-0.8756],[36.7561,-0.8744],[36.7522,-0.8714],[36.7284,-0.8703],[36.7229,-0.8745],[36.7189,-0.8714],[36.7145,-0.8703],[36.7105,-0.8672],[36.6978,-0.8661],[36.6897,-0.8589],[36.6811,-0.8578],[36.6772,-0.8547],[36.6728,-0.8536],[36.6689,-0.8506],[36.6561,-0.8494],[36.6522,-0.8464],[36.6326,-0.8453],[36.6272,-0.8494],[36.6145,-0.8506],[36.6105,-0.8536],[36.6034,-0.8547],[36.598,-0.8506],[36.5917,-0.85],[36.5917,-0.8458],[36.5917,-0.8417],[36.5875,-0.8417],[36.5866,-0.845],[36.5811,-0.8464],[36.5772,-0.8494],[36.5667,-0.85],[36.5667,-0.8458],[36.567,-0.8267],[36.5705,-0.8233],[36.5708,-0.8208],[36.5708,-0.8125],[36.5733,-0.8121],[36.5871,-0.7983],[36.5879,-0.7934],[36.5913,-0.7899],[36.592,-0.7816],[36.5879,-0.7774],[36.5871,-0.7726],[36.5837,-0.7691],[36.583,-0.7642],[36.5795,-0.7608],[36.5792,-0.7542],[36.5795,-0.7517],[36.5871,-0.7441],[36.5879,-0.7392],[36.6059,-0.7212],[36.6108,-0.7205],[36.6246,-0.7066],[36.6254,-0.7017],[36.6288,-0.6983],[36.6295,-0.6934],[36.633,-0.6899],[36.6333,-0.6792],[36.6355,-0.6786],[36.6436,-0.6714],[36.648,-0.6703],[36.6616,-0.6577],[36.6634,-0.6507],[36.673,-0.6494],[36.6853,-0.6381],[36.6897,-0.6369],[36.6991,-0.6286],[36.7,-0.625],[36.6996,-0.6226],[36.6962,-0.6191],[36.6958,-0.6167],[36.6958,-0.6125],[36.6917,-0.6125],[36.6917,-0.6042],[36.6884,-0.6033],[36.6869,-0.5978],[36.6839,-0.5939],[36.6828,-0.5811],[36.6756,-0.573],[36.6744,-0.5645],[36.6714,-0.5605],[36.6703,-0.5436],[36.6672,-0.5397],[36.6661,-0.5228],[36.6631,-0.5189],[36.6619,-0.5103],[36.6588,-0.5062],[36.6619,-0.5022],[36.6625,-0.4958],[36.6631,-0.477],[36.6661,-0.473],[36.6672,-0.4637],[36.6603,-0.4619],[36.6564,-0.4589],[36.6542,-0.4583],[36.6536,-0.4436],[36.6506,-0.4397],[36.6494,-0.4217],[36.6436,-0.4203],[36.6385,-0.4163],[36.6369,-0.4103],[36.6297,-0.4022],[36.6286,-0.3993],[36.6328,-0.3939],[36.6333,-0.3917],[36.6327,-0.3842],[36.627,-0.3828],[36.6189,-0.3756],[36.6167,-0.375],[36.6125,-0.375],[36.6101,-0.3746],[36.6042,-0.3688],[36.6167,-0.3563],[36.6129,-0.3524],[36.6121,-0.3434],[36.6087,-0.3399],[36.608,-0.3358],[36.6121,-0.3316],[36.6125,-0.3208],[36.616,-0.3199],[36.6167,-0.3083],[36.6175,-0.305],[36.6208,-0.3042],[36.6292,-0.3042],[36.6295,-0.3066],[36.633,-0.3101],[36.6333,-0.3125],[36.634,-0.3147],[36.6494,-0.3312],[36.651,-0.3423],[36.6772,-0.341],[36.6812,-0.3381],[36.7063,-0.3369],[36.7103,-0.334],[36.7147,-0.3327],[36.7187,-0.3298],[36.7288,-0.3283],[36.7327,-0.323],[36.7342,-0.3128],[36.7395,-0.309],[36.7647,-0.3077],[36.7687,-0.3048],[36.7708,-0.3042],[36.8439,-0.3036],[36.8478,-0.3006],[36.8522,-0.2994],[36.8561,-0.2964],[36.8689,-0.2953],[36.8743,-0.2911],[36.8772,-0.2922],[36.8811,-0.2953],[36.8897,-0.2964],[36.8951,-0.3006],[36.9074,-0.2993],[36.9093,-0.2921],[36.9145,-0.2881],[36.9167,-0.2875],[36.9173,-0.2812],[36.9202,-0.2771],[36.9215,-0.2729],[36.9244,-0.2688],[36.9257,-0.2469],[36.9325,-0.2448],[36.934,-0.2354],[36.9369,-0.2313],[36.9381,-0.227],[36.9452,-0.2188],[36.9466,-0.2049],[36.9622,-0.2033],[36.966,-0.198],[36.9679,-0.1918],[36.977,-0.184],[36.9813,-0.1827],[36.9854,-0.1798],[36.9938,-0.1785],[36.9979,-0.1756],[37.0063,-0.1744],[37.0104,-0.1715],[37.0167,-0.1708],[37.0189,-0.1714],[37.0228,-0.1744],[37.0355,-0.1756],[37.0395,-0.1786],[37.0439,-0.1797],[37.0562,-0.1912],[37.0603,-0.1881],[37.1397,-0.1869],[37.1451,-0.1828],[37.1699,-0.184],[37.1708,-0.1875],[37.1855,-0.1881],[37.1909,-0.1922],[37.1957,-0.1904],[37.1994,-0.1855],[37.2009,-0.1799],[37.2105,-0.1786],[37.2145,-0.1756],[37.2355,-0.1744],[37.2409,-0.1703],[37.2564,-0.1714],[37.2603,-0.1744],[37.273,-0.1756],[37.2771,-0.1787],[37.2826,-0.1744],[37.2991,-0.1756],[37.3,-0.1792],[37.3022,-0.1786],[37.3061,-0.1756],[37.3116,-0.1741],[37.3125,-0.1708],[37.3125,-0.1625],[37.3129,-0.1601],[37.3163,-0.1566],[37.3167,-0.1542],[37.3208,-0.1542],[37.3212,-0.1517],[37.3246,-0.1483],[37.325,-0.1375],[37.3206,-0.1364],[37.3245,-0.1313],[37.3214,-0.1272],[37.3208,-0.125],[37.3233,-0.1246],[37.3267,-0.1212],[37.3333,-0.1208],[37.3337,-0.1184],[37.3413,-0.1108],[37.3417,-0.1042],[37.342,-0.0934],[37.3455,-0.0899],[37.3462,-0.0733],[37.342,-0.0691],[37.3417,-0.0625],[37.3439,-0.0619],[37.3478,-0.0589],[37.3522,-0.0578],[37.3561,-0.0547],[37.3689,-0.0536],[37.377,-0.0464],[37.3908,-0.0452],[37.3926,-0.0381],[37.402,-0.0297],[37.4086,-0.028],[37.4036,-0.0216],[37.4047,-0.0145],[37.4119,-0.0064],[37.4135,-0.0004],[37.4186,0.0036],[37.423,0.0047],[37.427,0.0078],[37.4314,0.0089],[37.452,0.0286],[37.4564,0.0297],[37.4603,0.0328],[37.4658,0.0342],[37.4676,0.041],[37.4811,0.0536],[37.4855,0.0547],[37.4895,0.0578],[37.4917,0.0583],[37.5024,0.058],[37.5059,0.0545],[37.5167,0.0542],[37.5172,0.0647],[37.5286,0.077],[37.53,0.0825],[37.5355,0.0839],[37.5395,0.0869],[37.5458,0.0875],[37.5462,0.0941],[37.5496,0.0976],[37.55,0.1],[37.5522,0.1006],[37.5561,0.1036],[37.5647,0.1047],[37.5686,0.1078],[37.5741,0.1092],[37.576,0.1163],[37.5811,0.1203],[37.5855,0.1214],[37.5936,0.1286],[37.6,0.1292],[37.6012,0.1244],[37.6189,0.1256],[37.6228,0.1286],[37.6397,0.1297],[37.6478,0.1369],[37.6855,0.1381],[37.6895,0.1411],[37.6917,0.1417],[37.7189,0.1411],[37.7228,0.1381],[37.7314,0.1369],[37.7368,0.1328],[37.7449,0.1341],[37.7547,0.1449],[37.7536,0.148],[37.7494,0.1534],[37.7507,0.1616],[37.7603,0.1703],[37.7824,0.1715],[37.7845,0.1794],[37.7909,0.1744],[37.8022,0.1756],[37.8061,0.1786],[37.8083,0.1792],[37.8083,0.1833],[37.8271,0.184],[37.8312,0.1869],[37.8368,0.1885],[37.8382,0.2076],[37.8521,0.209],[37.8562,0.2119],[37.8625,0.2125],[37.8629,0.2149],[37.8705,0.2226],[37.8708,0.2292],[37.8708,0.2333],[37.875,0.2333],[37.8772,0.234],[37.8812,0.2369],[37.8909,0.2383],[37.8917,0.2458],[37.8917,0.25],[37.8923,0.2574],[37.8958,0.2583],[37.8991,0.2592],[37.9,0.2625],[37.9006,0.2783],[37.9075,0.28],[37.9089,0.2855],[37.9119,0.2895],[37.9131,0.3022],[37.9203,0.3103],[37.9208,0.3125],[37.9203,0.3189],[37.9171,0.3229],[37.9203,0.327],[37.9217,0.3325],[37.9283,0.3342],[37.9301,0.341],[37.9397,0.3422],[37.9436,0.3453],[37.9458,0.3458],[37.95,0.3458],[37.9534,0.3467],[37.9547,0.3549],[37.9506,0.3603],[37.95,0.3708],[37.9533,0.3717],[37.9542,0.375],[37.9536,0.3772],[37.9497,0.3822],[37.9542,0.3833],[37.9545,0.3899],[37.96,0.3955],[37.9649,0.3962],[37.9684,0.3996],[37.9733,0.4004],[37.983,0.41],[37.9833,0.4208],[37.9833,0.425],[37.9941,0.4254],[38.0059,0.4371],[38.0083,0.4375],[38.0083,0.4417],[38.0108,0.442],[38.0142,0.4455],[38.0167,0.4458],[38.0233,0.4462],[38.0267,0.4496],[38.0375,0.45],[38.05,0.45],[38.0524,0.4496],[38.0559,0.4462],[38.0649,0.4455],[38.0726,0.4379],[38.0774,0.4371],[38.0809,0.4337],[38.0833,0.4333],[38.0837,0.4358],[38.1017,0.4538],[38.1125,0.4542],[38.1129,0.4566],[38.1226,0.4663],[38.1649,0.467],[38.1691,0.4712],[38.1816,0.4705],[38.1851,0.467],[38.2191,0.4663],[38.2233,0.4621],[38.2358,0.4629],[38.2434,0.4705],[38.2566,0.4712],[38.2601,0.4746],[38.2649,0.4754],[38.2775,0.4879],[38.2816,0.4871],[38.2892,0.4795],[38.3083,0.4792],[38.3092,0.4757],[38.323,0.4744],[38.327,0.4714],[38.3325,0.47],[38.3339,0.4645],[38.3369,0.4605],[38.3384,0.4548],[38.3564,0.4536],[38.3603,0.4506],[38.3772,0.4494],[38.3811,0.4464],[38.3897,0.4453],[38.3978,0.4381],[38.4,0.4375],[38.4004,0.4351],[38.408,0.4274],[38.4087,0.4225],[38.4142,0.417],[38.4167,0.4167],[38.4275,0.4163],[38.4371,0.4066],[38.4375,0.4042],[38.4417,0.4042],[38.4524,0.4045],[38.4642,0.4163],[38.4691,0.417],[38.4729,0.4208],[38.4767,0.417],[38.4858,0.4163],[38.4892,0.4129],[38.5066,0.4121],[38.5267,0.392],[38.5316,0.3913],[38.5351,0.3879],[38.5483,0.3871],[38.5517,0.3837],[38.5542,0.3833],[38.5658,0.3827],[38.5667,0.3792],[38.5691,0.3788],[38.5726,0.3754],[38.575,0.375],[38.5759,0.3717],[38.5792,0.3708],[38.58,0.3675],[38.5833,0.3667],[38.5875,0.3667],[38.5941,0.3663],[38.6059,0.3545],[38.6167,0.3542],[38.6176,0.3506],[38.6397,0.3494],[38.6478,0.3422],[38.6574,0.341],[38.6619,0.3355],[38.6634,0.3299],[38.673,0.3286],[38.677,0.3256],[38.7022,0.3244],[38.7061,0.3214],[38.7199,0.3202],[38.7218,0.3131],[38.7311,0.3047],[38.7397,0.3036],[38.7436,0.3006],[38.748,0.2994],[38.752,0.2964],[38.7583,0.2958],[38.7733,0.2955],[38.7767,0.292],[38.7833,0.2917],[38.7842,0.2882],[38.798,0.2869],[38.802,0.2839],[38.823,0.2828],[38.827,0.2797],[38.8397,0.2786],[38.8436,0.2756],[38.8458,0.275],[38.8566,0.2746],[38.8642,0.267],[38.8667,0.2667],[38.8672,0.2645],[38.8703,0.2605],[38.8717,0.2548],[38.8853,0.2422],[38.8897,0.2411],[38.8936,0.2381],[38.8994,0.2366],[38.9119,0.223],[38.9131,0.2051],[38.9189,0.2036],[38.9228,0.2006],[38.9285,0.1991],[38.9494,0.1772],[38.9507,0.1676],[38.9542,0.1667],[38.9583,0.1667],[38.9616,0.1658],[38.9625,0.1625],[38.9625,0.1583],[38.9647,0.1578],[38.9686,0.1547],[38.9897,0.1536],[38.9936,0.1506],[38.9991,0.1491],[39.0011,0.1414],[39.0076,0.1464],[39.0158,0.1451],[39.0167,0.1417],[39.0191,0.142],[39.0226,0.1455],[39.0274,0.1462],[39.0309,0.1496],[39.0333,0.15],[39.0333,0.1458],[39.0397,0.1453],[39.0436,0.1422],[39.0491,0.1408],[39.0509,0.1342],[39.0564,0.1328],[39.0603,0.1297],[39.0625,0.1292],[39.07,0.1284],[39.0827,0.1147],[39.0841,0.105],[39.0938,0.1035],[39.0978,0.1006],[39.1022,0.0994],[39.1103,0.0923],[39.1159,0.0907],[39.1167,0.0833],[39.1176,0.0798],[39.125,0.0792],[39.1625,0.0792],[39.1658,0.0783],[39.1667,0.075],[39.1691,0.0746],[39.1809,0.0629],[39.1858,0.0621],[39.1892,0.0587],[39.1958,0.0583],[39.1962,0.0559],[39.1996,0.0524],[39.2,0.05],[39.2024,0.0496],[39.2059,0.0462],[39.2108,0.0455],[39.2163,0.0399],[39.2167,0.0375],[39.2274,0.0371],[39.2309,0.0337],[39.2333,0.0333],[39.2408,0.0327],[39.2422,0.027],[39.2453,0.023],[39.2467,0.0173],[39.2625,0.0167],[39.2625,0.0125],[39.2691,0.0121],[39.2726,0.0087],[39.2774,0.008],[39.2851,0.0004],[39.2899,-0.0004],[39.2976,-0.008],[39.3024,-0.0087],[39.3101,-0.0163],[39.3149,-0.017],[39.3184,-0.0205],[39.3292,-0.0208],[39.33,-0.0175],[39.3366,-0.0158],[39.3384,-0.0089],[39.3792,-0.0083],[39.38,-0.0116],[39.3855,-0.0131],[39.3895,-0.0161],[39.3939,-0.0172],[39.3978,-0.0203],[39.4038,-0.0218],[39.4078,-0.027],[39.409,-0.0408],[39.4125,-0.0417],[39.423,-0.0422],[39.427,-0.0453],[39.4355,-0.0464],[39.4409,-0.0506],[39.448,-0.0494],[39.4534,-0.0453],[39.4605,-0.0464],[39.4728,-0.0578],[39.4783,-0.0592],[39.48,-0.0658],[39.4855,-0.0672],[39.4895,-0.0703],[39.4951,-0.0717],[39.4965,-0.0824],[39.5,-0.0833],[39.5004,-0.0858],[39.5059,-0.0913],[39.5083,-0.0917],[39.5105,-0.0922],[39.5145,-0.0953],[39.523,-0.0964],[39.527,-0.0994],[39.5327,-0.1009],[39.5339,-0.1147],[39.5453,-0.127],[39.5464,-0.1314],[39.5494,-0.1353],[39.5507,-0.1449],[39.5603,-0.1536],[39.573,-0.1547],[39.577,-0.1578],[39.5828,-0.1593],[39.5911,-0.1686],[39.5917,-0.175],[39.5941,-0.1754],[39.5976,-0.1788],[39.6,-0.1792],[39.6024,-0.1795],[39.6059,-0.183],[39.6108,-0.1837],[39.6163,-0.1892],[39.6167,-0.1917],[39.6274,-0.192],[39.6309,-0.1955],[39.6333,-0.1958],[39.6358,-0.1962],[39.6392,-0.1996],[39.6458,-0.2],[39.6464,-0.2022],[39.6494,-0.2061],[39.6507,-0.2158],[39.6564,-0.2172],[39.6603,-0.2203],[39.6625,-0.2208],[39.6631,-0.223],[39.6672,-0.2284],[39.6661,-0.2439],[39.6619,-0.2493],[39.6635,-0.2534],[39.6689,-0.2547],[39.6728,-0.2578],[39.6783,-0.2592],[39.6792,-0.2625],[39.6767,-0.2629],[39.6712,-0.2684],[39.6708,-0.2833],[39.6714,-0.2855],[39.6744,-0.2895],[39.6756,-0.2939],[39.6786,-0.2978],[39.6797,-0.3022],[39.6869,-0.3103],[39.6884,-0.3158],[39.6952,-0.3176],[39.712,-0.3354],[39.7089,-0.3395],[39.7083,-0.3542],[39.7167,-0.3542],[39.7274,-0.3538],[39.7309,-0.3504],[39.7333,-0.35],[39.7448,-0.3506],[39.7578,-0.3645],[39.7589,-0.3689],[39.7744,-0.3853],[39.7756,-0.3897],[39.7786,-0.3936],[39.7798,-0.4074],[39.7871,-0.4093],[39.7911,-0.4145],[39.7917,-0.4167],[39.7881,-0.4176],[39.7869,-0.4509],[39.7953,-0.4603],[39.7964,-0.4647],[39.8384,-0.5076],[39.8491,-0.509],[39.8506,-0.5147],[39.8536,-0.5186],[39.8542,-0.5208],[39.8506,-0.5217],[39.8494,-0.5397],[39.8464,-0.5436],[39.8458,-0.55],[39.8533,-0.5507],[39.8547,-0.5564],[39.8578,-0.5603],[39.8589,-0.5689],[39.8619,-0.5728],[39.8631,-0.5772],[39.8661,-0.5811],[39.8667,-0.5833],[39.8673,-0.5855],[39.8702,-0.5895],[39.8715,-0.598],[39.8786,-0.6062],[39.8756,-0.6104],[39.8744,-0.6188],[39.8666,-0.6279],[39.875,-0.6304],[39.8785,-0.6354],[39.8804,-0.6415],[39.8895,-0.6494],[39.9048,-0.6509],[39.9035,-0.673],[39.9006,-0.677],[39.8994,-0.6813],[39.8965,-0.6854],[39.8952,-0.6896],[39.8881,-0.6979],[39.8875,-0.7],[39.8871,-0.7024],[39.8795,-0.7101],[39.8792,-0.7208],[39.8788,-0.7233],[39.8754,-0.7267],[39.875,-0.7583],[39.8759,-0.7616],[39.8836,-0.7636],[39.8797,-0.7686],[39.8786,-0.7814],[39.8744,-0.7868],[39.8756,-0.7939],[39.8786,-0.7978],[39.8799,-0.8074],[39.8936,-0.8203],[39.8996,-0.8218],[39.9036,-0.827],[39.9051,-0.8329],[39.9103,-0.8369],[39.9199,-0.8382],[39.9286,-0.8478],[39.9292,-0.8542],[39.9419,-0.855],[39.9368,-0.8623],[39.9382,-0.8813],[39.9452,-0.8895],[39.9465,-0.9021],[39.9493,-0.9062],[39.95,-0.9125],[39.9566,-0.9129],[39.9642,-0.9205],[39.9833,-0.9208],[39.9842,-0.9241],[39.991,-0.9259],[40.0078,-0.9436],[40.0089,-0.948],[40.0119,-0.952],[40.0125,-0.9542],[40.016,-0.9551],[40.0167,-0.9625],[40.0191,-0.9629],[40.0246,-0.9684],[40.025,-0.975],[40.0256,-0.9771],[40.0285,-0.9812],[40.0301,-0.9865],[40.0365,-0.9885],[40.0385,-0.995],[40.049,-0.9966],[40.0506,-1.0021],[40.0619,-1.0145],[40.0635,-1.0201],[40.0784,-1.0216],[40.0792,-1.0333],[40.0759,-1.0342],[40.0744,-1.0397],[40.0699,-1.0451],[40.0603,-1.0464],[40.0522,-1.0536],[40.0478,-1.0547],[40.0439,-1.0578],[40.0395,-1.0589],[40.0355,-1.0619],[40.0333,-1.0625],[40.034,-1.0688],[40.0452,-1.0812],[40.0465,-1.0855],[40.0506,-1.0912],[40.0494,-1.098],[40.0464,-1.1021],[40.0494,-1.1062],[40.0506,-1.1188],[40.0535,-1.1228],[40.0548,-1.1272],[40.0577,-1.1312],[40.059,-1.1355],[40.0744,-1.152],[40.0761,-1.158],[40.0853,-1.166],[40.0923,-1.168],[40.0906,-1.1748],[40.0855,-1.1785],[40.0744,-1.1802],[40.0756,-1.1938],[40.0785,-1.1978],[40.0792,-1.2083],[40.077,-1.209],[40.073,-1.2119],[40.0593,-1.2132],[40.0574,-1.2199],[40.052,-1.2215],[40.048,-1.2244],[40.0372,-1.2259],[40.041,-1.2312],[40.0417,-1.2375],[40.0422,-1.2439],[40.0453,-1.2478],[40.0464,-1.2522],[40.0536,-1.2603],[40.0549,-1.2699],[40.0811,-1.2953],[40.0868,-1.2967],[40.0875,-1.3042],[40.0908,-1.305],[40.0917,-1.3083],[40.0954,-1.3093],[40.0994,-1.3145],[40.101,-1.3204],[40.1061,-1.3244],[40.1116,-1.3259],[40.1135,-1.3329],[40.1186,-1.3369],[40.123,-1.3381],[40.127,-1.3411],[40.1397,-1.3422],[40.1478,-1.3494],[40.1522,-1.3506],[40.1645,-1.3619],[40.1667,-1.3625],[40.167,-1.3649],[40.1705,-1.3684],[40.1708,-1.3708],[40.1712,-1.3733],[40.1746,-1.3767],[40.1754,-1.3858],[40.1788,-1.3892],[40.1795,-1.4066],[40.183,-1.4101],[40.1833,-1.425],[40.1828,-1.4314],[40.1755,-1.4396],[40.1786,-1.4436],[40.1797,-1.4522],[40.1836,-1.4572],[40.1747,-1.4595],[40.1786,-1.4645],[40.1797,-1.4689],[40.1839,-1.4743],[40.1828,-1.4772],[40.1786,-1.4826],[40.1798,-1.4991],[40.1878,-1.5011],[40.1828,-1.5076],[40.1839,-1.5189],[40.187,-1.5229],[40.1838,-1.5271],[40.1869,-1.5311],[40.1875,-1.5333],[40.1951,-1.5341],[40.1958,-1.5417],[40.2064,-1.5422],[40.2145,-1.5494],[40.2202,-1.5509],[40.2208,-1.5625],[40.2316,-1.5621],[40.2351,-1.5587],[40.2375,-1.5583],[40.2381,-1.5689],[40.2411,-1.5728],[40.2425,-1.5783],[40.2506,-1.5804],[40.2494,-1.5855],[40.2464,-1.5895],[40.2453,-1.5939],[40.2411,-1.5993],[40.2422,-1.6022],[40.2494,-1.6103],[40.2509,-1.6158],[40.2579,-1.6176],[40.2631,-1.6243],[40.2619,-1.6272],[40.2588,-1.6313],[40.2619,-1.6353],[40.2632,-1.6449],[40.27,-1.6467],[40.2718,-1.6538],[40.277,-1.6578],[40.2792,-1.6583],[40.2798,-1.6605],[40.3048,-1.6867],[40.3029,-1.6909],[40.2883,-1.6924],[40.2868,-1.7073],[40.2785,-1.7098],[40.2798,-1.7146],[40.2827,-1.7187],[40.2833,-1.7333],[40.2868,-1.7342],[40.2881,-1.748],[40.2953,-1.7561],[40.2964,-1.7605],[40.2994,-1.7645],[40.3007,-1.7782],[40.3103,-1.7869],[40.323,-1.7881],[40.327,-1.7911],[40.3314,-1.7922],[40.3353,-1.7953],[40.3449,-1.7965],[40.3464,-1.8022],[40.3536,-1.8103],[40.3542,-1.8125],[40.3542,-1.8167],[40.3497,-1.8178],[40.3536,-1.8228],[40.3547,-1.8272],[40.3578,-1.8311],[40.3589,-1.8439],[40.3619,-1.8478],[40.3631,-1.853],[40.355,-1.855],[40.3536,-1.8605],[40.3506,-1.8645],[40.35,-1.8667],[40.3524,-1.867],[40.3601,-1.8746],[40.3649,-1.8754],[40.3684,-1.8788],[40.3708,-1.8792],[40.373,-1.8786],[40.3784,-1.8744],[40.3866,-1.8757],[40.3881,-1.8814],[40.4036,-1.8978],[40.4042,-1.9083],[40.4042,-1.9125],[40.402,-1.9131],[40.3965,-1.9176],[40.3953,-1.9272],[40.3913,-1.9324],[40.3853,-1.9339],[40.3828,-1.9363],[40.3897,-1.9381],[40.3936,-1.9411],[40.3958,-1.9417],[40.4,-1.9417],[40.4074,-1.9423],[40.4119,-1.9478],[40.4134,-1.9533],[40.4201,-1.9551],[40.4422,-1.9781],[40.4411,-1.9897],[40.438,-1.9938],[40.4494,-2.0061],[40.45,-2.0167],[40.4434,-2.017],[40.4379,-2.0225],[40.4371,-2.035],[40.4413,-2.0392],[40.442,-2.0441],[40.4455,-2.0476],[40.4462,-2.0524],[40.4496,-2.0559],[40.4504,-2.0649],[40.4559,-2.0705],[40.4608,-2.0712],[40.4663,-2.0767],[40.467,-2.0858],[40.4708,-2.0896],[40.4629,-2.0976],[40.4621,-2.1024],[40.4583,-2.1063],[40.4663,-2.1142],[40.467,-2.1233],[40.4705,-2.1267],[40.4708,-2.1417],[40.4675,-2.1425],[40.4667,-2.1458],[40.4673,-2.1616],[40.4744,-2.1634],[40.4839,-2.1741],[40.4828,-2.1772],[40.4786,-2.1826],[40.4797,-2.1939],[40.4839,-2.1993],[40.4823,-2.2034],[40.4792,-2.2042],[40.4797,-2.2105],[40.4828,-2.2145],[40.4839,-2.2189],[40.4911,-2.227],[40.4926,-2.2327],[40.5061,-2.2453],[40.5116,-2.2467],[40.5134,-2.2533],[40.52,-2.255],[40.5217,-2.2616],[40.5285,-2.2634],[40.5297,-2.273],[40.5339,-2.2784],[40.5323,-2.2825],[40.5256,-2.2843],[40.5171,-2.2937],[40.5214,-2.2993],[40.5202,-2.3158],[40.5145,-2.3172],[40.5105,-2.3203],[40.5036,-2.322],[40.5048,-2.3533],[40.5118,-2.3551],[40.5125,-2.3625],[40.5125,-2.3708],[40.5131,-2.373],[40.5161,-2.377],[40.5173,-2.3948],[40.527,-2.4036],[40.5327,-2.4051],[40.5333,-2.4167],[40.5324,-2.4202],[40.525,-2.4208],[40.5184,-2.4212],[40.5149,-2.4246],[40.5101,-2.4254],[40.5045,-2.4309],[40.5042,-2.4542],[40.5064,-2.4547],[40.5103,-2.4578],[40.5199,-2.459],[40.5244,-2.4645],[40.5256,-2.473],[40.5286,-2.477],[40.5299,-2.4866],[40.5353,-2.4911],[40.5397,-2.4922],[40.552,-2.5036],[40.5616,-2.5049],[40.5634,-2.5116],[40.5667,-2.5125],[40.5655,-2.5172],[40.5551,-2.516],[40.553,-2.5079],[40.5397,-2.5203],[40.5333,-2.5208],[40.5309,-2.5212],[40.5233,-2.5288],[40.5208,-2.5292],[40.5208,-2.5333],[40.5167,-2.5333],[40.5159,-2.5257],[40.4955,-2.5244],[40.4896,-2.5285],[40.4729,-2.5298],[40.4688,-2.5327],[40.4562,-2.534],[40.4521,-2.5369],[40.4437,-2.5381],[40.4396,-2.541],[40.4312,-2.5423],[40.4271,-2.5452],[40.4208,-2.5458],[40.4184,-2.5462],[40.4149,-2.5496],[40.4101,-2.5504],[40.4066,-2.5538],[40.3983,-2.5545],[40.3941,-2.5504],[40.3875,-2.55],[40.3866,-2.5466],[40.3784,-2.5453],[40.373,-2.5494],[40.3645,-2.5506],[40.3605,-2.5536],[40.3576,-2.5547],[40.3522,-2.5506],[40.3478,-2.5494],[40.3439,-2.5464],[40.3395,-2.5453],[40.3355,-2.5422],[40.3,-2.5417],[40.277,-2.5422],[40.2646,-2.5537],[40.2542,-2.5443],[40.2579,-2.5396],[40.2538,-2.5343],[40.2478,-2.5328],[40.2439,-2.5297],[40.2284,-2.5286],[40.223,-2.5328],[40.2051,-2.534],[40.2042,-2.5375],[40.1936,-2.5369],[40.1885,-2.5329],[40.1866,-2.5259],[40.1798,-2.5241],[40.1786,-2.502],[40.1756,-2.498],[40.1744,-2.4936],[40.1714,-2.4897],[40.17,-2.4842],[40.1645,-2.4828],[40.1564,-2.4756],[40.1534,-2.4744],[40.147,-2.4794],[40.1453,-2.4728],[40.1422,-2.4689],[40.1417,-2.4667],[40.1392,-2.467],[40.1358,-2.4705],[40.1309,-2.4712],[40.1233,-2.4788],[40.1208,-2.4792],[40.1202,-2.4813],[40.1173,-2.4854],[40.1158,-2.4997],[40.1105,-2.5035],[40.0966,-2.5049],[40.0952,-2.5188],[40.0923,-2.5229],[40.091,-2.5271],[40.0881,-2.5312],[40.0875,-2.5417],[40.0868,-2.5534],[40.0757,-2.555],[40.0743,-2.5742],[40.0645,-2.5756],[40.0605,-2.5785],[39.9978,-2.5798],[39.9938,-2.5827],[39.9833,-2.5833],[39.983,-2.5858],[39.9795,-2.5892],[39.9792,-2.5917],[39.9827,-2.5926],[39.9839,-2.6064],[39.9869,-2.6103],[39.9875,-2.6208],[39.9875,-2.625],[39.9866,-2.6283],[39.98,-2.63],[39.9786,-2.6355],[39.9744,-2.6409],[39.9756,-2.6647],[39.9786,-2.6686],[39.9792,-2.7042],[39.9795,-2.7066],[39.983,-2.7101],[39.9837,-2.7191],[39.9913,-2.7267],[39.9917,-2.7292],[39.9895,-2.7298],[39.9855,-2.7327],[39.9788,-2.734],[39.973,-2.7298],[39.9687,-2.7285],[39.9646,-2.7256],[39.9621,-2.7244],[39.9563,-2.7285],[39.952,-2.7298],[39.9467,-2.7336],[39.9452,-2.7204],[39.9494,-2.7146],[39.9506,-2.7038],[39.9458,-2.697],[39.9395,-2.6952],[39.9313,-2.6881],[39.9262,-2.6917],[39.9244,-2.698],[39.9117,-2.7117],[39.8979,-2.7131],[39.8938,-2.716],[39.8729,-2.7173],[39.8646,-2.7244],[39.8618,-2.7256],[39.8521,-2.7173],[39.85,-2.7167],[39.8494,-2.7145],[39.8443,-2.7083],[39.8355,-2.7161],[39.8311,-2.7172],[39.826,-2.7212],[39.8241,-2.7283],[39.8208,-2.7292],[39.8167,-2.7292],[39.8134,-2.7283],[39.8119,-2.7228],[39.8047,-2.7147],[39.8042,-2.7083],[39.8042,-2.7042],[39.8038,-2.6976],[39.7983,-2.692],[39.7958,-2.6917],[39.7726,-2.692],[39.7691,-2.6955],[39.7559,-2.6962],[39.7483,-2.7038],[39.7417,-2.7042],[39.7392,-2.7038],[39.7313,-2.6958],[39.7271,-2.7],[39.7233,-2.6962],[39.7208,-2.6958],[39.7199,-2.6996],[39.7132,-2.7047],[39.7009,-2.7035],[39.7,-2.7],[39.6958,-2.7],[39.6842,-2.6994],[39.6825,-2.6925],[39.677,-2.6911],[39.6718,-2.6871],[39.6708,-2.6833],[39.6553,-2.684],[39.6531,-2.6909],[39.6415,-2.6923],[39.6341,-2.6872],[39.6326,-2.7241],[39.6248,-2.7257],[39.6188,-2.7215],[39.6165,-2.7202],[39.6097,-2.7248],[39.6072,-2.7326],[39.5958,-2.7333],[39.595,-2.7366],[39.5917,-2.7375],[39.5892,-2.7379],[39.5858,-2.7413],[39.5809,-2.742],[39.5774,-2.7455],[39.5726,-2.7462],[39.5691,-2.7496],[39.5525,-2.7504],[39.5483,-2.7462],[39.54,-2.7455],[39.5358,-2.7496],[39.5309,-2.7504],[39.5254,-2.7559],[39.5246,-2.7649],[39.5191,-2.7705],[39.5142,-2.7712],[39.5108,-2.7746],[39.5083,-2.775],[39.5061,-2.7756],[39.5022,-2.7786],[39.4978,-2.7797],[39.4772,-2.7994],[39.4717,-2.8009],[39.47,-2.8075],[39.4667,-2.8083],[39.466,-2.8146],[39.4631,-2.8187],[39.4615,-2.824],[39.4562,-2.8256],[39.4521,-2.8285],[39.4383,-2.8299],[39.4369,-2.8438],[39.4298,-2.852],[39.4285,-2.8563],[39.4256,-2.8604],[39.425,-2.8625],[39.425,-2.8708],[39.424,-2.8746],[39.4189,-2.8786],[39.4132,-2.8801],[39.4118,-2.8908],[39.405,-2.8925],[39.4042,-2.8958],[39.3958,-2.8958],[39.3934,-2.8962],[39.3858,-2.9038],[39.3809,-2.9045],[39.3774,-2.908],[39.3642,-2.9087],[39.3608,-2.9121],[39.3517,-2.9129],[39.342,-2.9225],[39.3417,-2.9333],[39.3392,-2.9337],[39.3337,-2.9392],[39.3333,-2.9458],[39.3267,-2.9462],[39.3229,-2.95],[39.3149,-2.942],[39.3101,-2.9413],[39.2983,-2.9295],[39.2833,-2.9292],[39.2809,-2.9295],[39.2774,-2.933],[39.2726,-2.9337],[39.2608,-2.9455],[39.2392,-2.9462],[39.2316,-2.9538],[39.2226,-2.9545],[39.2191,-2.958],[39.215,-2.9587],[39.2108,-2.9545],[39.2059,-2.9538],[39.2024,-2.9504],[39.1958,-2.95],[39.1895,-2.9506],[39.1801,-2.9589],[39.1783,-2.9658],[39.1715,-2.9676],[39.1708,-2.975],[39.1603,-2.9744],[39.1564,-2.9714],[39.1509,-2.97],[39.1494,-2.9645],[39.1464,-2.9605],[39.145,-2.9552],[39.1409,-2.9536],[39.1354,-2.9579],[39.1314,-2.9547],[39.1243,-2.9536],[39.1189,-2.9578],[39.1115,-2.9589],[39.0926,-2.941],[39.0917,-2.9375],[39.0895,-2.9381],[39.0855,-2.9411],[39.0811,-2.9422],[39.0772,-2.9453],[39.0676,-2.9465],[39.0658,-2.9535],[39.0551,-2.9549],[39.0542,-2.9583],[39.0517,-2.958],[39.0483,-2.9545],[39.0375,-2.9542],[39.0353,-2.9547],[39.0314,-2.9578],[39.0186,-2.9589],[39.0146,-2.962],[39.0105,-2.9589],[39.0009,-2.9576],[38.9989,-2.9497],[38.9939,-2.9536],[38.9895,-2.9547],[38.9855,-2.9578],[38.9804,-2.9589],[38.9792,-2.9542],[38.9726,-2.9538],[38.9691,-2.9504],[38.9525,-2.9496],[38.9483,-2.9538],[38.9351,-2.9545],[38.9254,-2.9642],[38.925,-2.9667],[38.8892,-2.9663],[38.8858,-2.9629],[38.8809,-2.9621],[38.8754,-2.9566],[38.8746,-2.9476],[38.8708,-2.9438],[38.8746,-2.9399],[38.8754,-2.9316],[38.8712,-2.9274],[38.8708,-2.9208],[38.8635,-2.9216],[38.8619,-2.9271],[38.859,-2.9312],[38.8577,-2.9337],[38.8619,-2.9395],[38.8631,-2.9505],[38.8576,-2.9576],[38.8383,-2.9591],[38.8369,-2.973],[38.834,-2.977],[38.8327,-2.9896],[38.8298,-2.9937],[38.8292,-2.9958],[38.8226,-2.9962],[38.8129,-3.0059],[38.8121,-3.0108],[38.8087,-3.0142],[38.8083,-3.0167],[38.8059,-3.017],[38.8024,-3.0205],[38.8,-3.0208],[38.7991,-3.0241],[38.7936,-3.0256],[38.7882,-3.0297],[38.7811,-3.0286],[38.7772,-3.0256],[38.7728,-3.0244],[38.7689,-3.0214],[38.7645,-3.0203],[38.7564,-3.0131],[38.7478,-3.0119],[38.7424,-3.0078],[38.7353,-3.0089],[38.7314,-3.0119],[38.725,-3.0125],[38.7242,-3.0049],[38.7121,-3.0035],[38.7063,-3.0077],[38.7038,-3.009],[38.698,-3.0048],[38.6937,-3.0035],[38.6855,-2.9965],[38.6701,-2.9952],[38.6605,-3.0035],[38.6583,-3.0042],[38.6559,-3.0038],[38.6504,-2.9983],[38.6496,-2.9934],[38.6462,-2.9899],[38.6458,-2.9875],[38.6436,-2.9869],[38.6397,-2.9839],[38.6326,-2.9828],[38.6271,-2.987],[38.6189,-2.9797],[38.6145,-2.9786],[38.6105,-2.9756],[38.602,-2.9744],[38.5968,-2.9704],[38.595,-2.9632],[38.5868,-2.9619],[38.5814,-2.9661],[38.5708,-2.9667],[38.5642,-2.9663],[38.5524,-2.9545],[38.5458,-2.9542],[38.5453,-2.952],[38.5422,-2.948],[38.5411,-2.9436],[38.5339,-2.9355],[38.5328,-2.9311],[38.5256,-2.923],[38.5244,-2.9186],[38.5172,-2.9105],[38.5158,-2.905],[38.5103,-2.9036],[38.5064,-2.9006],[38.5007,-2.8991],[38.4994,-2.8853],[38.4964,-2.8814],[38.4953,-2.877],[38.4922,-2.873],[38.4911,-2.8686],[38.4881,-2.8647],[38.4869,-2.8603],[38.4839,-2.8564],[38.4833,-2.8542],[38.4866,-2.8533],[38.4881,-2.8478],[38.4911,-2.8439],[38.4917,-2.8375],[38.4913,-2.8267],[38.4879,-2.8233],[38.4871,-2.8059],[38.4816,-2.8004],[38.475,-2.8],[38.4746,-2.7851],[38.4712,-2.7816],[38.4705,-2.7767],[38.4545,-2.7608],[38.4538,-2.7559],[38.4504,-2.7524],[38.45,-2.725],[38.4478,-2.7244],[38.4426,-2.7204],[38.4408,-2.7134],[38.4353,-2.7119],[38.4314,-2.7089],[38.427,-2.7078],[38.4208,-2.7027],[38.4244,-2.698],[38.4256,-2.6909],[38.4214,-2.6855],[38.4203,-2.677],[38.4131,-2.6689],[38.4118,-2.6592],[38.4083,-2.6583],[38.4078,-2.6478],[38.4047,-2.6439],[38.4033,-2.6384],[38.3965,-2.6366],[38.3953,-2.627],[38.3881,-2.6189],[38.3869,-2.6061],[38.3839,-2.6022],[38.3828,-2.5853],[38.3788,-2.5801],[38.375,-2.5792],[38.375,-2.5708],[38.3746,-2.5601]],[[39.6587,-1.5559],[39.6583,-1.5583],[39.6583,-1.5583],[39.6587,-1.5559]]]}}]}